{
  "norad_id": "49495",
  "name": "GAOFEN-3 02",
  "line1": "1 49495U 21109A   26172.48909596  .00000248  00000+0  88504-4 0  9994",
  "line2": "2 49495  98.4090 180.5251 0002620   6.6784 353.4441 14.42218197240937",
  "fetched_at": "2026-06-22T01:52:49.567154+00:00"
}